start=new Date('2022-05-24T00:00:00.000Z').valueOf();
sats=[{"APOAPSIS":"548.629","INCLINATION":"53.0559","TIME_SYSTEM":"UTC","SITE":"AFETR","EPOCH":"2022-05-23T15:01:57.588672","TLE_LINE1":"1 47559U 21009M   22143.62636098  .00001044  00000-0  88983-4 0  9993","GP_ID":"204365598","NORAD_CAT_ID":"47559","SEMIMAJOR_AXIS":"6925.365","BSTAR":"0.00008898300000","MEAN_ANOMALY":"312.9322","CLASSIFICATION_TYPE":"U","RA_OF_ASC_NODE":"103.8988","LAUNCH_DATE":"2021-02-04","CENTER_NAME":"EARTH","PERIAPSIS":"545.831","REF_FRAME":"TEME","ARG_OF_PERICENTER":"47.1837","ECCENTRICITY":"0.00020200","MEAN_MOTION":"15.06394577","OBJECT_TYPE":"PAYLOAD","ELEMENT_SET_NO":"999","TLE_LINE2":"2 47559  53.0559 103.8988 0002020  47.1837 312.9322 15.06394577 72165","FILE":"3460905","MEAN_MOTION_DOT":"0.00001044","EPHEMERIS_TYPE":"0","MEAN_ELEMENT_THEORY":"SGP4","OBJECT_ID":"2021-009M","MEAN_MOTION_DDOT":"0.0000000000000","REV_AT_EPOCH":"7216","COUNTRY_CODE":"US","DECAY_DATE":null,"RCS_SIZE":"LARGE","OBJECT_NAME":"STARLINK-1958","PERIOD":"95.592"},{"OBJECT_TYPE":"PAYLOAD","MEAN_MOTION":"15.06392755","ECCENTRICITY":"0.00020690","PERIAPSIS":"545.803","REF_FRAME":"TEME","ARG_OF_PERICENTER":"48.5218","PERIOD":"95.593","RCS_SIZE":"LARGE","OBJECT_NAME":"STARLINK-1959","MEAN_MOTION_DDOT":"0.0000000000000","OBJECT_ID":"2021-009N","REV_AT_EPOCH":"7216","DECAY_DATE":null,"COUNTRY_CODE":"US","ELEMENT_SET_NO":"999","FILE":"3460905","TLE_LINE2":"2 47560  53.0526 103.9339 0002069  48.5218 311.5949 15.06392755 72169","MEAN_MOTION_DOT":"0.00000569","EPHEMERIS_TYPE":"0","MEAN_ELEMENT_THEORY":"SGP4","NORAD_CAT_ID":"47560","TLE_LINE1":"1 47560U 21009N   22143.61899106  .00000569  00000-0  57091-4 0  9992","GP_ID":"204364349","SITE":"AFETR","EPOCH":"2022-05-23T14:51:20.827584","APOAPSIS":"548.669","INCLINATION":"53.0526","TIME_SYSTEM":"UTC","MEAN_ANOMALY":"311.5949","CLASSIFICATION_TYPE":"U","RA_OF_ASC_NODE":"103.9339","LAUNCH_DATE":"2021-02-04","CENTER_NAME":"EARTH","BSTAR":"0.00005709100000","SEMIMAJOR_AXIS":"6925.371"},{"ELEMENT_SET_NO":"999","FILE":"3460905","TLE_LINE2":"2 47561  53.0555 123.7048 0001706  64.6565 295.4601 15.06400783 71895","MEAN_MOTION_DOT":"0.00000586","MEAN_ELEMENT_THEORY":"SGP4","EPHEMERIS_TYPE":"0","MEAN_MOTION_DDOT":"0.0000000000000","OBJECT_ID":"2021-009P","REV_AT_EPOCH":"7189","DECAY_DATE":null,"COUNTRY_CODE":"US","OBJECT_NAME":"STARLINK-1960","RCS_SIZE":"LARGE","PERIOD":"95.592","PERIAPSIS":"546.030","REF_FRAME":"TEME","ARG_OF_PERICENTER":"64.6565","ECCENTRICITY":"0.00017060","MEAN_MOTION":"15.06400783","OBJECT_TYPE":"PAYLOAD","SEMIMAJOR_AXIS":"6925.346","BSTAR":"0.00005825900000","MEAN_ANOMALY":"295.4601","CLASSIFICATION_TYPE":"U","LAUNCH_DATE":"2021-02-04","RA_OF_ASC_NODE":"123.7048","CENTER_NAME":"EARTH","APOAPSIS":"548.393","INCLINATION":"53.0555","TIME_SYSTEM":"UTC","SITE":"AFETR","EPOCH":"2022-05-23T16:08:18.394368","TLE_LINE1":"1 47561U 21009P   22143.67243512  .00000586  00000-0  58259-4 0  9999","GP_ID":"204364599","NORAD_CAT_ID":"47561"},{"PERIAPSIS":"545.376","REF_FRAME":"TEME","ARG_OF_PERICENTER":"32.9084","ECCENTRICITY":"0.00026680","MEAN_MOTION":"15.06396639","OBJECT_TYPE":"PAYLOAD","ELEMENT_SET_NO":"999","TLE_LINE2":"2 47562  53.0533 125.7129 0002668  32.9084 327.2070 15.06396639 71827","FILE":"3460386","MEAN_MOTION_DOT":"0.00000502","EPHEMERIS_TYPE":"0","MEAN_ELEMENT_THEORY":"SGP4","OBJECT_ID":"2021-009Q","MEAN_MOTION_DDOT":"0.0000000000000","REV_AT_EPOCH":"7182","DECAY_DATE":null,"COUNTRY_CODE":"US","OBJECT_NAME":"STARLINK-1961","RCS_SIZE":"LARGE","PERIOD":"95.592","APOAPSIS":"549.072","INCLINATION":"53.0533","TIME_SYSTEM":"UTC","SITE":"AFETR","EPOCH":"2022-05-23T05:20:45.833280","TLE_LINE1":"1 47562U 21009Q   22143.22275270  .00000502  00000-0  52609-4 0  9998","GP_ID":"204329733","NORAD_CAT_ID":"47562","SEMIMAJOR_AXIS":"6925.359","BSTAR":"0.00005260900000","MEAN_ANOMALY":"327.2070","CLASSIFICATION_TYPE":"U","RA_OF_ASC_NODE":"125.7129","LAUNCH_DATE":"2021-02-04","CENTER_NAME":"EARTH"},{"BSTAR":"0.00053099000000","CENTER_NAME":"EARTH","LAUNCH_DATE":"2021-02-04","RA_OF_ASC_NODE":"123.8291","MEAN_ANOMALY":"320.7740","CLASSIFICATION_TYPE":"U","SEMIMAJOR_AXIS":"6925.329","TLE_LINE1":"1 47563U 21009R   22143.64295995  .00007638  00000-0  53099-3 0  9991","GP_ID":"204366098","NORAD_CAT_ID":"47563","TIME_SYSTEM":"UTC","INCLINATION":"53.0530","APOAPSIS":"548.754","EPOCH":"2022-05-23T15:25:51.739680","SITE":"AFETR","RCS_SIZE":"LARGE","OBJECT_NAME":"STARLINK-1962","PERIOD":"95.592","EPHEMERIS_TYPE":"0","MEAN_ELEMENT_THEORY":"SGP4","MEAN_MOTION_DOT":"0.00007638","TLE_LINE2":"2 47563  53.0530 123.8291 0002253  39.3412 320.7740 15.06406467 71889","FILE":"3460905","ELEMENT_SET_NO":"999","DECAY_DATE":null,"COUNTRY_CODE":"US","REV_AT_EPOCH":"7188","OBJECT_ID":"2021-009R","MEAN_MOTION_DDOT":"0.0000000000000","MEAN_MOTION":"15.06406467","OBJECT_TYPE":"PAYLOAD","ARG_OF_PERICENTER":"39.3412","REF_FRAME":"TEME","PERIAPSIS":"545.633","ECCENTRICITY":"0.00022530"},{"RCS_SIZE":"LARGE","OBJECT_NAME":"STARLINK-1963","PERIOD":"95.592","ELEMENT_SET_NO":"999","EPHEMERIS_TYPE":"0","MEAN_ELEMENT_THEORY":"SGP4","TLE_LINE2":"2 47564  53.0548 113.8294 0002264  48.5690 311.5493 15.06401624 72023","FILE":"3460905","MEAN_MOTION_DOT":"-0.00000313","MEAN_MOTION_DDOT":"0.0000000000000","OBJECT_ID":"2021-009S","DECAY_DATE":null,"COUNTRY_CODE":"US","REV_AT_EPOCH":"7202","MEAN_MOTION":"15.06401624","OBJECT_TYPE":"PAYLOAD","PERIAPSIS":"545.641","ARG_OF_PERICENTER":"48.5690","REF_FRAME":"TEME","ECCENTRICITY":"0.00022640","BSTAR":"-0.00000211150000","CLASSIFICATION_TYPE":"U","MEAN_ANOMALY":"311.5493","CENTER_NAME":"EARTH","RA_OF_ASC_NODE":"113.8294","LAUNCH_DATE":"2021-02-04","SEMIMAJOR_AXIS":"6925.344","TLE_LINE1":"1 47564U 21009S   22143.64386601 -.00000313  00000-0 -21115-5 0  9998","GP_ID":"204364849","NORAD_CAT_ID":"47564","APOAPSIS":"548.776","TIME_SYSTEM":"UTC","INCLINATION":"53.0548","EPOCH":"2022-05-23T15:27:10.023264","SITE":"AFETR"},{"OBJECT_TYPE":"PAYLOAD","MEAN_MOTION":"15.06399064","ECCENTRICITY":"0.00020940","PERIAPSIS":"545.766","REF_FRAME":"TEME","ARG_OF_PERICENTER":"49.0101","PERIOD":"95.592","OBJECT_NAME":"STARLINK-1964","RCS_SIZE":"LARGE","MEAN_MOTION_DDOT":"0.0000000000000","OBJECT_ID":"2021-009T","REV_AT_EPOCH":"7202","COUNTRY_CODE":"US","DECAY_DATE":null,"ELEMENT_SET_NO":"999","TLE_LINE2":"2 47565  53.0543 113.8420 0002094  49.0101 311.1069 15.06399064 72023","FILE":"3460905","MEAN_MOTION_DOT":"-0.00000479","EPHEMERIS_TYPE":"0","MEAN_ELEMENT_THEORY":"SGP4","NORAD_CAT_ID":"47565","GP_ID":"204365098","TLE_LINE1":"1 47565U 21009T   22143.64018651 -.00000479  00000-0 -13211-4 0  9996","SITE":"AFETR","EPOCH":"2022-05-23T15:21:52.114464","APOAPSIS":"548.667","INCLINATION":"53.0543","TIME_SYSTEM":"UTC","CLASSIFICATION_TYPE":"U","MEAN_ANOMALY":"311.1069","RA_OF_ASC_NODE":"113.8420","LAUNCH_DATE":"2021-02-04","CENTER_NAME":"EARTH","BSTAR":"-0.00001321100000","SEMIMAJOR_AXIS":"6925.351"},{"SEMIMAJOR_AXIS":"6925.357","BSTAR":"-0.00009153000000","CENTER_NAME":"EARTH","RA_OF_ASC_NODE":"105.3672","LAUNCH_DATE":"2021-02-04","CLASSIFICATION_TYPE":"U","MEAN_ANOMALY":"322.0849","TIME_SYSTEM":"UTC","INCLINATION":"53.0553","APOAPSIS":"548.672","EPOCH":"2022-05-23T07:14:52.794816","SITE":"AFETR","TLE_LINE1":"1 47566U 21009U   22143.30199994 -.00001645  00000-0 -91530-4 0  9996","GP_ID":"204329233","NORAD_CAT_ID":"47566","EPHEMERIS_TYPE":"0","MEAN_ELEMENT_THEORY":"SGP4","FILE":"3460386","TLE_LINE2":"2 47566  53.0553 105.3672 0002094  38.0288 322.0849 15.06397301 72113","MEAN_MOTION_DOT":"-0.00001645","ELEMENT_SET_NO":"999","COUNTRY_CODE":"US","DECAY_DATE":null,"REV_AT_EPOCH":"7211","MEAN_MOTION_DDOT":"0.0000000000000","OBJECT_ID":"2021-009U","RCS_SIZE":"LARGE","OBJECT_NAME":"STARLINK-1965","PERIOD":"95.592","ARG_OF_PERICENTER":"38.0288","REF_FRAME":"TEME","PERIAPSIS":"545.772","ECCENTRICITY":"0.00020940","MEAN_MOTION":"15.06397301","OBJECT_TYPE":"PAYLOAD"},{"MEAN_MOTION":"15.06396153","OBJECT_TYPE":"PAYLOAD","PERIAPSIS":"545.946","ARG_OF_PERICENTER":"52.6597","REF_FRAME":"TEME","ECCENTRICITY":"0.00018480","RCS_SIZE":"LARGE","OBJECT_NAME":"STARLINK-1966","PERIOD":"95.592","ELEMENT_SET_NO":"999","MEAN_ELEMENT_THEORY":"SGP4","EPHEMERIS_TYPE":"0","FILE":"3460905","TLE_LINE2":"2 47567  53.0536 143.4127 0001848  52.6597 307.4560 15.06396153 71619","MEAN_MOTION_DOT":"0.00001832","OBJECT_ID":"2021-009V","MEAN_MOTION_DDOT":"0.0000000000000","DECAY_DATE":null,"COUNTRY_CODE":"US","REV_AT_EPOCH":"7161","TLE_LINE1":"1 47567U 21009V   22143.73694275  .00001832  00000-0  14186-3 0  9993","GP_ID":"204365599","NORAD_CAT_ID":"47567","APOAPSIS":"548.505","TIME_SYSTEM":"UTC","INCLINATION":"53.0536","EPOCH":"2022-05-23T17:41:11.853600","SITE":"AFETR","BSTAR":"0.00014186000000","MEAN_ANOMALY":"307.4560","CLASSIFICATION_TYPE":"U","CENTER_NAME":"EARTH","LAUNCH_DATE":"2021-02-04","RA_OF_ASC_NODE":"143.4127","SEMIMAJOR_AXIS":"6925.360"},{"SEMIMAJOR_AXIS":"6925.373","RA_OF_ASC_NODE":"143.5850","LAUNCH_DATE":"2021-02-04","CENTER_NAME":"EARTH","MEAN_ANOMALY":"319.0900","CLASSIFICATION_TYPE":"U","BSTAR":"0.00005683100000","SITE":"AFETR","EPOCH":"2022-05-23T16:42:48.731904","INCLINATION":"53.0542","TIME_SYSTEM":"UTC","APOAPSIS":"548.718","NORAD_CAT_ID":"47568","TLE_LINE1":"1 47568U 21009W   22143.69639736  .00000565  00000-0  56831-4 0  9996","GP_ID":"204364350","REV_AT_EPOCH":"7161","DECAY_DATE":null,"COUNTRY_CODE":"US","MEAN_MOTION_DDOT":"0.0000000000000","OBJECT_ID":"2021-009W","FILE":"3460905","TLE_LINE2":"2 47568  53.0542 143.5850 0002137  41.0250 319.0900 15.06392058 71618","MEAN_MOTION_DOT":"0.00000565","MEAN_ELEMENT_THEORY":"SGP4","EPHEMERIS_TYPE":"0","ELEMENT_SET_NO":"999","PERIOD":"95.593","OBJECT_NAME":"STARLINK-1967","RCS_SIZE":"LARGE","ECCENTRICITY":"0.00021370","REF_FRAME":"TEME","ARG_OF_PERICENTER":"41.0250","PERIAPSIS":"545.758","OBJECT_TYPE":"PAYLOAD","MEAN_MOTION":"15.06392058"}];
